{
  "type": "FeatureCollection",
  "features": [
    {
      "type": "Feature",
      "properties": {
        "norad_id": 29798,
        "name": "FENGYUN 1C DEB",
        "group": "fengyun-1c-debris",
        "lat": -20.301966643948983,
        "lon": 59.91919951603682,
        "alt_km": 889.0067487384931,
        "timestamp": "2025-12-18T10:51:26.077879+00:00",
        "meta_object_name": "FENGYUN 1C DEB",
        "meta_object_id": "1999-025CQ",
        "meta_epoch": "2025-12-17T22:04:12.322848",
        "meta_mean_motion": 13.99592612,
        "meta_eccentricity": 0.01118206,
        "meta_inclination": 99.2955,
        "meta_ra_of_asc_node": 55.9047,
        "meta_arg_of_pericenter": 258.3297,
        "meta_mean_anomaly": 276.8638,
        "meta_ephemeris_type": 0,
        "meta_classification_type": "U",
        "meta_norad_cat_id": 29798,
        "meta_element_set_no": 999,
        "meta_rev_at_epoch": 95997,
        "meta_bstar": 0.0012603362,
        "meta_mean_motion_dot": 1.896e-05,
        "meta_mean_motion_ddot": 0,
        "tle_line1": "1 29798U 99025CQ  25351.91958707  .00001896  00000+0  12603-2 0  9999",
        "tle_line2": "2 29798  99.2955  55.9047 0111820 258.3297 276.8638 13.99592612959971"
      },
      "geometry": {
        "type": "Point",
        "coordinates": [
          59.91919951603682,
          -20.301966643948983
        ]
      }
    },
    {
      "type": "Feature",
      "properties": {
        "norad_id": 29800,
        "name": "FENGYUN 1C DEB",
        "group": "fengyun-1c-debris",
        "lat": 55.665161545699355,
        "lon": -154.1557629441614,
        "alt_km": 888.0947587744431,
        "timestamp": "2025-12-18T10:51:26.077889+00:00",
        "meta_object_name": "FENGYUN 1C DEB",
        "meta_object_id": "1999-025CS",
        "meta_epoch": "2025-12-14T12:34:15.669408",
        "meta_mean_motion": 13.98577675,
        "meta_eccentricity": 0.01335294,
        "meta_inclination": 98.2903,
        "meta_ra_of_asc_node": 9.9649,
        "meta_arg_of_pericenter": 222.1267,
        "meta_mean_anomaly": 293.6575,
        "meta_ephemeris_type": 0,
        "meta_classification_type": "U",
        "meta_norad_cat_id": 29800,
        "meta_element_set_no": 999,
        "meta_rev_at_epoch": 95601,
        "meta_bstar": 0.0021913253,
        "meta_mean_motion_dot": 3.354e-05,
        "meta_mean_motion_ddot": 0,
        "tle_line1": "1 29800U 99025CS  25348.52379247  .00003354  00000+0  21913-2 0  9997",
        "tle_line2": "2 29800  98.2903   9.9649 0133529 222.1267 293.6575 13.98577675956010"
      },
      "geometry": {
        "type": "Point",
        "coordinates": [
          -154.1557629441614,
          55.665161545699355
        ]
      }
    },
    {
      "type": "Feature",
      "properties": {
        "norad_id": 29801,
        "name": "FENGYUN 1C DEB",
        "group": "fengyun-1c-debris",
        "lat": 79.49116275524668,
        "lon": 130.16752454970663,
        "alt_km": 830.9558517801506,
        "timestamp": "2025-12-18T10:51:26.077900+00:00",
        "meta_object_name": "FENGYUN 1C DEB",
        "meta_object_id": "1999-025CT",
        "meta_epoch": "2025-12-17T17:59:49.856640",
        "meta_mean_motion": 14.35902722,
        "meta_eccentricity": 0.01028064,
        "meta_inclination": 98.7951,
        "meta_ra_of_asc_node": 252.8748,
        "meta_arg_of_pericenter": 252.4446,
        "meta_mean_anomaly": 174.4791,
        "meta_ephemeris_type": 0,
        "meta_classification_type": "U",
        "meta_norad_cat_id": 29801,
        "meta_element_set_no": 999,
        "meta_rev_at_epoch": 99013,
        "meta_bstar": 0.00014064959,
        "meta_mean_motion_dot": 3.84e-06,
        "meta_mean_motion_ddot": 0,
        "tle_line1": "1 29801U 99025CT  25351.74988260  .00000384  00000+0  14065-3 0  9998",
        "tle_line2": "2 29801  98.7951 252.8748 0102806 252.4446 174.4791 14.35902722990131"
      },
      "geometry": {
        "type": "Point",
        "coordinates": [
          130.16752454970663,
          79.49116275524668
        ]
      }
    },
    {
      "type": "Feature",
      "properties": {
        "norad_id": 29802,
        "name": "FENGYUN 1C DEB",
        "group": "fengyun-1c-debris",
        "lat": -78.5011141688513,
        "lon": -126.39720685716397,
        "alt_km": 678.7793711315426,
        "timestamp": "2025-12-18T10:51:26.077910+00:00",
        "meta_object_name": "FENGYUN 1C DEB",
        "meta_object_id": "1999-025CU",
        "meta_epoch": "2025-12-17T06:02:31.509312",
        "meta_mean_motion": 14.62436139,
        "meta_eccentricity": 0.00371281,
        "meta_inclination": 98.6193,
        "meta_ra_of_asc_node": 100.5618,
        "meta_arg_of_pericenter": 324.5553,
        "meta_mean_anomaly": 100.7642,
        "meta_ephemeris_type": 0,
        "meta_classification_type": "U",
        "meta_norad_cat_id": 29802,
        "meta_element_set_no": 999,
        "meta_rev_at_epoch": 98539,
        "meta_bstar": 0.0021166951,
        "meta_mean_motion_dot": 0.00010783,
        "meta_mean_motion_ddot": 0,
        "tle_line1": "1 29802U 99025CU  25351.25175358  .00010783  00000+0  21167-2 0  9995",
        "tle_line2": "2 29802  98.6193 100.5618 0037128 324.5553 100.7642 14.62436139985391"
      },
      "geometry": {
        "type": "Point",
        "coordinates": [
          -126.39720685716397,
          -78.5011141688513
        ]
      }
    },
    {
      "type": "Feature",
      "properties": {
        "norad_id": 29804,
        "name": "FENGYUN 1C DEB",
        "group": "fengyun-1c-debris",
        "lat": 58.787121291077185,
        "lon": -164.69183207327572,
        "alt_km": 941.3393610701123,
        "timestamp": "2025-12-18T10:51:26.077921+00:00",
        "meta_object_name": "FENGYUN 1C DEB",
        "meta_object_id": "1999-025CW",
        "meta_epoch": "2025-12-17T14:21:24.674400",
        "meta_mean_motion": 14.0432401,
        "meta_eccentricity": 0.00969993,
        "meta_inclination": 98.8048,
        "meta_ra_of_asc_node": 359.6596,
        "meta_arg_of_pericenter": 288.1719,
        "meta_mean_anomaly": 196.1277,
        "meta_ephemeris_type": 0,
        "meta_classification_type": "U",
        "meta_norad_cat_id": 29804,
        "meta_element_set_no": 999,
        "meta_rev_at_epoch": 96962,
        "meta_bstar": 1.2403122e-05,
        "meta_mean_motion_dot": -2.3e-07,
        "meta_mean_motion_ddot": 0,
        "tle_line1": "1 29804U 99025CW  25351.59820225 -.00000023  00000+0  12403-4 0  9996",
        "tle_line2": "2 29804  98.8048 359.6596 0096999 288.1719 196.1277 14.04324010969627"
      },
      "geometry": {
        "type": "Point",
        "coordinates": [
          -164.69183207327572,
          58.787121291077185
        ]
      }
    },
    {
      "type": "Feature",
      "properties": {
        "norad_id": 29805,
        "name": "FENGYUN 1C DEB",
        "group": "fengyun-1c-debris",
        "lat": -6.9614390939294655,
        "lon": 44.81665796682466,
        "alt_km": 1095.8841926382956,
        "timestamp": "2025-12-18T10:51:26.077946+00:00",
        "meta_object_name": "FENGYUN 1C DEB",
        "meta_object_id": "1999-025CX",
        "meta_epoch": "2025-12-17T03:24:13.325760",
        "meta_mean_motion": 13.72658708,
        "meta_eccentricity": 0.01881534,
        "meta_inclination": 99.4545,
        "meta_ra_of_asc_node": 42.3573,
        "meta_arg_of_pericenter": 218.287,
        "meta_mean_anomaly": 140.4794,
        "meta_ephemeris_type": 0,
        "meta_classification_type": "U",
        "meta_norad_cat_id": 29805,
        "meta_element_set_no": 999,
        "meta_rev_at_epoch": 94763,
        "meta_bstar": 0.0001634971,
        "meta_mean_motion_dot": 1.25e-06,
        "meta_mean_motion_ddot": 0,
        "tle_line1": "1 29805U 99025CX  25351.14182090  .00000125  00000+0  16350-3 0  9995",
        "tle_line2": "2 29805  99.4545  42.3573 0188153 218.2870 140.4794 13.72658708947635"
      },
      "geometry": {
        "type": "Point",
        "coordinates": [
          44.81665796682466,
          -6.9614390939294655
        ]
      }
    },
    {
      "type": "Feature",
      "properties": {
        "norad_id": 29806,
        "name": "FENGYUN 1C DEB",
        "group": "fengyun-1c-debris",
        "lat": -71.36386825099117,
        "lon": 35.124322308450665,
        "alt_km": 847.1689326434534,
        "timestamp": "2025-12-18T10:51:26.077959+00:00",
        "meta_object_name": "FENGYUN 1C DEB",
        "meta_object_id": "1999-025CY",
        "meta_epoch": "2025-12-17T19:02:22.791840",
        "meta_mean_motion": 14.12016428,
        "meta_eccentricity": 0.00277313,
        "meta_inclination": 98.7123,
        "meta_ra_of_asc_node": 7.4393,
        "meta_arg_of_pericenter": 237.1421,
        "meta_mean_anomaly": 300.8524,
        "meta_ephemeris_type": 0,
        "meta_classification_type": "U",
        "meta_norad_cat_id": 29806,
        "meta_element_set_no": 999,
        "meta_rev_at_epoch": 97210,
        "meta_bstar": 0.00047948589,
        "meta_mean_motion_dot": 8.38e-06,
        "meta_mean_motion_ddot": 0,
        "tle_line1": "1 29806U 99025CY  25351.79331935  .00000838  00000+0  47949-3 0  9990",
        "tle_line2": "2 29806  98.7123   7.4393 0027731 237.1421 300.8524 14.12016428972103"
      },
      "geometry": {
        "type": "Point",
        "coordinates": [
          35.124322308450665,
          -71.36386825099117
        ]
      }
    }
  ]
}